{
  "type": "FeatureCollection",
  "features": [
    {
      "type": "Feature",
      "properties": {
        "norad_id": 37238,
        "name": "INTELSAT 17 (IS-17)",
        "group": "intelsat",
        "lat": 0.026007979599697785,
        "lon": 30.08438351872404,
        "alt_km": 35791.56883119749,
        "timestamp": "2025-12-17T15:50:09.444748+00:00",
        "meta_object_name": "INTELSAT 17 (IS-17)",
        "meta_object_id": "2010-065B",
        "meta_epoch": "2025-12-17T03:22:04.809216",
        "meta_mean_motion": 1.00270565,
        "meta_eccentricity": 0.00026176,
        "meta_inclination": 0.0066,
        "meta_ra_of_asc_node": 326.803,
        "meta_arg_of_pericenter": 305.5707,
        "meta_mean_anomaly": 290.1669,
        "meta_ephemeris_type": 0,
        "meta_classification_type": "U",
        "meta_norad_cat_id": 37238,
        "meta_element_set_no": 999,
        "meta_rev_at_epoch": 5142,
        "meta_bstar": 0,
        "meta_mean_motion_dot": 2.3e-07,
        "meta_mean_motion_ddot": 0,
        "tle_line1": "1 37238U 10065B   25351.14033344  .00000023  00000+0  00000+0 0  9996",
        "tle_line2": "2 37238   0.0066 326.8030 0002617 305.5707 290.1669  1.00270565 51423"
      },
      "geometry": {
        "type": "Point",
        "coordinates": [
          30.08438351872404,
          0.026007979599697785
        ]
      }
    },
    {
      "type": "Feature",
      "properties": {
        "norad_id": 37392,
        "name": "INTELSAT 28 (IS-28)",
        "group": "intelsat",
        "lat": -0.6361916226613161,
        "lon": -67.60765603393814,
        "alt_km": 35771.99883841356,
        "timestamp": "2025-12-17T15:50:09.444760+00:00",
        "meta_object_name": "INTELSAT 28 (IS-28)",
        "meta_object_id": "2011-016A",
        "meta_epoch": "2025-12-17T04:36:50.148576",
        "meta_mean_motion": 1.00270879,
        "meta_eccentricity": 0.00036946,
        "meta_inclination": 1.3357,
        "meta_ra_of_asc_node": 85.006,
        "meta_arg_of_pericenter": 184.9457,
        "meta_mean_anomaly": 213.6505,
        "meta_ephemeris_type": 0,
        "meta_classification_type": "U",
        "meta_norad_cat_id": 37392,
        "meta_element_set_no": 999,
        "meta_rev_at_epoch": 5146,
        "meta_bstar": 0,
        "meta_mean_motion_dot": -2.01e-06,
        "meta_mean_motion_ddot": 0,
        "tle_line1": "1 37392U 11016A   25351.19224709 -.00000201  00000+0  00000+0 0  9995",
        "tle_line2": "2 37392   1.3357  85.0060 0003694 184.9457 213.6505  1.00270879 51466"
      },
      "geometry": {
        "type": "Point",
        "coordinates": [
          -67.60765603393814,
          -0.6361916226613161
        ]
      }
    },
    {
      "type": "Feature",
      "properties": {
        "norad_id": 37834,
        "name": "INTELSAT 18 (IS-18)",
        "group": "intelsat",
        "lat": -0.0013186259902544639,
        "lon": 144.04260875044824,
        "alt_km": 35791.246816699626,
        "timestamp": "2025-12-17T15:50:09.444772+00:00",
        "meta_object_name": "INTELSAT 18 (IS-18)",
        "meta_object_id": "2011-056A",
        "meta_epoch": "2025-12-17T03:54:31.701024",
        "meta_mean_motion": 1.00271964,
        "meta_eccentricity": 0.00017331,
        "meta_inclination": 0.0128,
        "meta_ra_of_asc_node": 305.3818,
        "meta_arg_of_pericenter": 334.5403,
        "meta_mean_anomaly": 44.7489,
        "meta_ephemeris_type": 0,
        "meta_classification_type": "U",
        "meta_norad_cat_id": 37834,
        "meta_element_set_no": 999,
        "meta_rev_at_epoch": 5198,
        "meta_bstar": 0,
        "meta_mean_motion_dot": 7.7e-07,
        "meta_mean_motion_ddot": 0,
        "tle_line1": "1 37834U 11056A   25351.16286691  .00000077  00000+0  00000+0 0  9995",
        "tle_line2": "2 37834   0.0128 305.3818 0001733 334.5403  44.7489  1.00271964 51981"
      },
      "geometry": {
        "type": "Point",
        "coordinates": [
          144.04260875044824,
          -0.0013186259902544639
        ]
      }
    },
    {
      "type": "Feature",
      "properties": {
        "norad_id": 38098,
        "name": "INTELSAT 22 (IS-22)",
        "group": "intelsat",
        "lat": 0.004000247609670013,
        "lon": 36.17789144957755,
        "alt_km": 35788.93504560607,
        "timestamp": "2025-12-17T15:50:09.444785+00:00",
        "meta_object_name": "INTELSAT 22 (IS-22)",
        "meta_object_id": "2012-011A",
        "meta_epoch": "2025-12-17T03:23:49.641792",
        "meta_mean_motion": 1.00270594,
        "meta_eccentricity": 0.00018755,
        "meta_inclination": 0.0421,
        "meta_ra_of_asc_node": 54.6207,
        "meta_arg_of_pericenter": 233.2007,
        "meta_mean_anomaly": 281.2568,
        "meta_ephemeris_type": 0,
        "meta_classification_type": "U",
        "meta_norad_cat_id": 38098,
        "meta_element_set_no": 999,
        "meta_rev_at_epoch": 536,
        "meta_bstar": 0,
        "meta_mean_motion_dot": 0,
        "meta_mean_motion_ddot": 0,
        "tle_line1": "1 38098U 12011A   25351.14154678  .00000000  00000+0  00000+0 0  9993",
        "tle_line2": "2 38098   0.0421  54.6207 0001875 233.2007 281.2568  1.00270594  5363"
      },
      "geometry": {
        "type": "Point",
        "coordinates": [
          36.17789144957755,
          0.004000247609670013
        ]
      }
    },
    {
      "type": "Feature",
      "properties": {
        "norad_id": 38356,
        "name": "INTELSAT 19 (IS-19)",
        "group": "intelsat",
        "lat": 0.017712971240696887,
        "lon": 130.0546681352532,
        "alt_km": 35797.14495476855,
        "timestamp": "2025-12-17T15:50:09.444797+00:00",
        "meta_object_name": "INTELSAT 19 (IS-19)",
        "meta_object_id": "2012-030A",
        "meta_epoch": "2025-12-17T05:21:51.620832",
        "meta_mean_motion": 1.00272069,
        "meta_eccentricity": 0.00031924,
        "meta_inclination": 0.0079,
        "meta_ra_of_asc_node": 340.9294,
        "meta_arg_of_pericenter": 294.8311,
        "meta_mean_anomaly": 56.8222,
        "meta_ephemeris_type": 0,
        "meta_classification_type": "U",
        "meta_norad_cat_id": 38356,
        "meta_element_set_no": 999,
        "meta_rev_at_epoch": 4862,
        "meta_bstar": 0,
        "meta_mean_motion_dot": -3.2e-07,
        "meta_mean_motion_ddot": 0,
        "tle_line1": "1 38356U 12030A   25351.22351413 -.00000032  00000+0  00000+0 0  9992",
        "tle_line2": "2 38356   0.0079 340.9294 0003192 294.8311  56.8222  1.00272069 48629"
      },
      "geometry": {
        "type": "Point",
        "coordinates": [
          130.0546681352532,
          0.017712971240696887
        ]
      }
    },
    {
      "type": "Feature",
      "properties": {
        "norad_id": 38740,
        "name": "INTELSAT 20 (IS-20)",
        "group": "intelsat",
        "lat": 0.003711752124454179,
        "lon": 32.54824033424579,
        "alt_km": 35796.46895668379,
        "timestamp": "2025-12-17T15:50:09.444810+00:00",
        "meta_object_name": "INTELSAT 20 (IS-20)",
        "meta_object_id": "2012-043A",
        "meta_epoch": "2025-12-17T00:05:38.746752",
        "meta_mean_motion": 1.00274173,
        "meta_eccentricity": 0.00029469,
        "meta_inclination": 0.0123,
        "meta_ra_of_asc_node": 89.4199,
        "meta_arg_of_pericenter": 96.5748,
        "meta_mean_anomaly": 329.8002,
        "meta_ephemeris_type": 0,
        "meta_classification_type": "U",
        "meta_norad_cat_id": 38740,
        "meta_element_set_no": 999,
        "meta_rev_at_epoch": 4892,
        "meta_bstar": 0,
        "meta_mean_motion_dot": -1e-08,
        "meta_mean_motion_ddot": 0,
        "tle_line1": "1 38740U 12043A   25351.00392068 -.00000001  00000+0  00000+0 0  9996",
        "tle_line2": "2 38740   0.0123  89.4199 0002946  96.5748 329.8002  1.00274173 48922"
      },
      "geometry": {
        "type": "Point",
        "coordinates": [
          32.54824033424579,
          0.003711752124454179
        ]
      }
    },
    {
      "type": "Feature",
      "properties": {
        "norad_id": 38749,
        "name": "INTELSAT 21 (IS-21)",
        "group": "intelsat",
        "lat": -0.02580485947711974,
        "lon": -93.9078477721271,
        "alt_km": 35778.99827463367,
        "timestamp": "2025-12-17T15:50:09.444822+00:00",
        "meta_object_name": "INTELSAT 21 (IS-21)",
        "meta_object_id": "2012-045A",
        "meta_epoch": "2025-12-16T09:39:21.104640",
        "meta_mean_motion": 1.00275644,
        "meta_eccentricity": 0.00014741,
        "meta_inclination": 0.0368,
        "meta_ra_of_asc_node": 79.4307,
        "meta_arg_of_pericenter": 176.2803,
        "meta_mean_anomaly": 276.4325,
        "meta_ephemeris_type": 0,
        "meta_classification_type": "U",
        "meta_norad_cat_id": 38749,
        "meta_element_set_no": 999,
        "meta_rev_at_epoch": 4869,
        "meta_bstar": 0,
        "meta_mean_motion_dot": -2.61e-06,
        "meta_mean_motion_ddot": 0,
        "tle_line1": "1 38749U 12045A   25350.40232760 -.00000261  00000+0  00000+0 0  9990",
        "tle_line2": "2 38749   0.0368  79.4307 0001474 176.2803 276.4325  1.00275644 48698"
      },
      "geometry": {
        "type": "Point",
        "coordinates": [
          -93.9078477721271,
          -0.02580485947711974
        ]
      }
    }
  ]
}